#aV2022 10  2  0  0  0.00000000     288 DD+AD WGS84 FIT  NGA
## 2230      0.00000000   300.00000000 59854 0.0000000000000
+   32     1  2  3  4  5  6  7  8  9 10 11 12 13 14 15 16 17
+         18 19 20 21 22 23 24 25 26 27 28 29 30 31 32  0  0
+          0  0  0  0  0  0  0  0  0  0  0  0  0  0  0  0  0
+          0  0  0  0  0  0  0  0  0  0  0  0  0  0  0  0  0
+          0  0  0  0  0  0  0  0  0  0  0  0  0  0  0  0  0
++         2  2  2  2  2  2  2  2  2  2  2  2  2  2  2  2  2
++         2  2  2  2  2  2  2  2  2  2  2  2  2  2  2  0  0
++         0  0  0  0  0  0  0  0  0  0  0  0  0  0  0  0  0
++         0  0  0  0  0  0  0  0  0  0  0  0  0  0  0  0  0
++         0  0  0  0  0  0  0  0  0  0  0  0  0  0  0  0  0
%c cc cc ccc ccc cccc cccc cccc cccc ccccc ccccc ccccc ccccc
%c cc cc ccc ccc cccc cccc cccc cccc ccccc ccccc ccccc ccccc
%f  0.0000000  0.000000000  0.00000000000  0.000000000000000
%f  0.0000000  0.000000000  0.00000000000  0.000000000000000
%i    0    0    0    0      0      0      0      0         0
%i    0    0    0    0      0      0      0      0         0
/*      NGA, ST. LOUIS,MO.                                  
/*   EPHEMERIS COMPUTED FROM 2 DAYS OF DATA                 
/*   EPOCHA v8 SMOOTHER                                     
/*   G2139 IERS2010 SATIGS SATAPC                           
*  2022 10  2 12  0  0.00000000
P  1  18393.881519  13791.554767 -13902.634743    274.142117                    
V  1 -16763.537533  -2781.830288 -25182.297746     -0.062797                    
P  2 -13876.321453 -14486.249201  17976.835385   -643.945164                    
V  2  21593.707971   1578.530059  18774.750761      0.014527                    
P  3  11889.231612  22823.226323   6660.143331   -359.495927                    
V  3    482.198732   8848.260908 -30499.523602     -0.049756                    
P  4   9068.305070  12350.004956  21692.328024   -109.936237                    
V  4 -19540.126986  19410.892096  -2979.572431      0.058987                    
P  5  -6048.503205 -25409.426796   4254.622787    -98.849804                    
V  5   4597.994587   4333.794196  31254.812858     -0.014534                    
P  6  17640.716222  -8225.898321  18165.167081    479.202119                    
V  6  22033.170382   6153.908059 -18601.040861      0.115613                    
P  7  26107.950235   6180.563091    334.591915    302.573332                    
V  7   -524.254571   2660.090016  31214.265002     -0.034699                    
P  8    601.048877  18908.068236 -18532.249925    -87.082075                    
V  8 -16791.958121  16636.389833  16816.699459     -0.016526                    
P  9  17673.115118   1076.569157  19732.995220   -288.619582                    
V  9 -15772.089031  19734.110320  12956.858747      0.050155                    
P 10 -13627.566907   5989.142705 -21832.489697     -5.762526                    
V 10  -8746.635470 -26662.268771  -2143.242777     -0.016226                    
P 11   6395.197291 -13868.638011  21728.624204    -21.554184                    
V 11  26490.489965   7681.102158  -2929.513753     -0.037555                    
P 12 -10045.305257 -23781.733311   6206.228598   -287.508448                    
V 12    497.888650  -8544.340365 -30524.138662     -0.052788                    
P 13   8925.476919 -20361.698547 -14561.200958    398.502870                    
V 13  15328.379771 -10107.769040  23987.358107      0.071415                    
P 14  14938.797940  -3846.709733 -21612.984757    -98.890756                    
V 14   7309.494549  26510.353155    224.673291      0.033831                    
P 15  -3465.690540 -19051.387440 -18495.243301    -24.243394                    
V 15  14698.091807 -17548.925597  15994.942816      0.031352                    
P 16  -1530.967734  24326.803949   9695.688035   -525.507910                    
V 16  -5435.468207 -11966.625075  28811.223758     -0.007603                    
P 17  21626.352024 -11342.841528 -10079.463086    664.848444                    
V 17  -8210.139963  10801.875118 -28473.762300      0.036186                    
P 18 -26076.355691  -5181.538771  -1658.075353     28.770437                    
V 18  -1480.765747  -2744.042775  31833.622901     -0.131187                    
P 19  20252.110252 -16955.059693   -918.366851    218.429207                    
V 19   1010.233268   2491.063158 -32234.866648      0.050616                    
P 20   2847.218621 -20787.634598  16427.942663    481.679457                    
V 20  11135.737803  17681.560920  20226.283837     -0.030987                    
P 21  11294.753627  14718.308074 -18665.358533    158.647383                    
V 21 -24675.698747  -2233.011986 -15447.851931     -0.005591                    
P 22 -18190.422206  19110.266463   2475.179765    338.328976                    
V 22  -3912.746419   -333.368501 -31690.818906      0.069176                    
P 23 -16493.781463  -5541.129257 -20114.760537     -0.670967                    
V 23  -7426.291331 -24364.259065  12679.871552     -0.003679                    
P 24 -15340.526709 -14536.177576 -16656.450146    114.909274                    
V 24  20541.077582    844.525653 -19625.545799     -0.138982                    
P 25 -15987.970522 -14838.588096  15049.711788    378.182715                    
V 25  -4050.244822 -19218.597117 -22543.560629      0.039731                    
P 26  -6917.117061  18368.056025  17657.875792    230.910028                    
V 26 -10198.550145 -20511.864020  17577.931885      0.015043                    
P 27 -10363.086161  21955.077369 -10502.847282    204.225823                    
V 27 -10678.992701   8035.134270  28293.185566     -0.054091                    
P 28  10761.138459 -13914.732617 -19471.405163    333.551923                    
V 28   6507.243778  24928.691851 -13624.971962     -0.037729                    
P 29 -16617.196304  -3255.193176  20440.099821   -556.403462                    
V 29  18432.303740 -18323.923947  11960.091142     -0.031107                    
P 30  24283.922887  -2337.935269 -10711.963108   -537.202509                    
V 30  12645.815898   6032.091810  26866.399847     -0.000771                    
P 31 -17304.142809   8923.585765  18121.183034   -195.390719                    
V 31 -22137.121869  -6945.594670 -17122.581818     -0.013101                    
P 32 -20648.231431  14330.308277  -8124.923782   -250.842611                    
V 32   4968.049851  -9769.340363 -29512.476983     -0.116667                    
EOF
